ECHOSTAR 7              
1 27378U 02006A   21229.63740054 -.00000012  00000-0  00000-0 0  9994
2 27378   0.0673 280.0091 0002773 178.5830 338.2981  1.00270671 32908
INTELSAT 904 (IS-904)   
1 27380U 02007A   21229.41984243 -.00000227  00000-0  00000-0 0  9992
2 27380   2.4808  89.1322 0003423  59.6259 298.8903  1.00270514 34069
TDRS 9                  
1 27389U 02011A   21229.48509686 -.00000301  00000-0  00000-0 0  9990
2 27389   8.3749  63.5599 0022125 290.6165  84.0898  1.00279218 72758
ASTRA 3A                
1 27400U 02015B   21229.55191958 -.00000218  00000-0  00000-0 0  9992
2 27400   6.7686  61.0781 0001392  74.4709 302.5175  1.00271638 71039
NSS-7                   
1 27414U 02019A   21229.42167439 -.00000172  00000-0  00000-0 0  9993
2 27414   5.1937  73.7065 0002219  79.0181 305.0897  1.00273474 70875
DIRECTV 5 (TEMPO 1)     
1 27426U 02023A   21229.54196146 -.00000068  00000-0  00000-0 0  9995
2 27426   0.3644  96.9796 0003722  59.5800 254.5590  1.00271955 70420
INTELSAT 905 (IS-905)   
1 27438U 02027A   21229.41994060 -.00000198  00000-0  00000-0 0  9993
2 27438   2.3024  89.9289 0002784  49.5529 313.2154  1.00271712 33676
GALAXY 3C (G-3C)        
1 27445U 02030A   21229.55034934 -.00000162  00000-0  00000-0 0  9996
2 27445   0.0146 346.1696 0001467 354.7571  88.2743  1.00269237 28800
EUTELSAT 5 WEST A       
1 27460U 02035A   21229.35293248 -.00000055  00000-0  00000-0 0  9992
2 27460   1.5706  92.7035 0004996  51.1001 304.1700  1.00271221 69918
METEOSAT-8 (MSG-1)      
1 27509U 02040B   21229.14684703  .00000122  00000-0  00000-0 0  9993
2 27509   7.4780  52.1806 0000459  39.8122 328.2332  1.00279860 69568
INTELSAT 906 (IS-906)   
1 27513U 02041A   21229.51030806  .00000002  00000-0  00000-0 0  9996
2 27513   1.3121  94.0837 0003322  64.9287  54.9373  1.00269333 69334
HISPASAT 30W-4          
1 27528U 02044A   21229.61683297  .00000103  00000-0  00000-0 0  9996
2 27528   2.0898  90.0558 0005051  55.2197 260.0041  1.00275916 25270
TDRS 10                 
1 27566U 02055A   21229.59354198  .00000075  00000-0  00000-0 0  9990
2 27566   7.6517  51.5739 0007042 343.9637 333.1501  1.00270389 68530
NSS-6                   
1 27603U 02057A   21229.59425100  .00000095  00000-0  00000-0 0  9998
2 27603   0.8477  95.1940 0004597  41.8595 233.5270  1.00271959 68348
NIMIQ 2                 
1 27632U 02062A   21229.57757851 -.00000065  00000-0  00000-0 0  9993
2 27632   5.3058  72.7974 0005599  17.0900 161.3440  0.99993447 26498
USA 167                 
1 27691U 03008A   21229.62833005  .00000041  00000-0  00000-0 0  9994
2 27691   7.4501  56.4715 0003803  35.1241 330.5624  1.00271813 15262
USA 169 (MILSTAR-2 4)   
1 27711U 03012A   21229.45975748 -.00000207  00000-0  00000-0 0  9999
2 27711   9.6728  42.1454 0002688 105.7787 135.7774  1.00273346 15254
GALAXY 12 (G-12)        
1 27715U 03013B   21229.62953177  .00000044  00000-0  00000-0 0  9993
2 27715   2.5163  88.6571 0002029  60.2311 274.9609  1.00273004 34395
ASIASAT 4               
1 27718U 03014A   21229.39216095  .00000142  00000-0  00000-0 0  9991
2 27718   0.2092  99.7991 0001950  60.0019 345.5681  1.00275161 27605
HELLAS-SAT 2            
1 27811U 03020A   21229.55026211 -.00000164  00000-0  00000-0 0  9994
2 27811   2.9335  87.8112 0004628  62.6917 278.5045  1.00270687 25145
THURAYA-2               
1 27825U 03026A   21229.50629521  .00000115  00000-0  00000-0 0  9998
2 27825   6.3668  33.9582 0004765  83.5919  74.8109  1.00271183 66657
OPTUS C1                
1 27831U 03028B   21229.56469012 -.00000164  00000-0  00000+0 0  9994
2 27831   2.4438  89.7823 0006366  55.1100 180.2625  1.00270843 66634
GALAXY 23 (G-23)        
1 27854U 03034A   21229.63513153  .00000001  00000-0  00000-0 0  9990
2 27854   0.0097 136.5544 0002861  12.1139 285.2012  1.00271307 66043
USA 170                 
1 27875U 03040A   21229.41722535 -.00000287  00000-0  00000-0 0  9999
2 27875   6.7469  61.8758 0004580  86.3747 285.3485  1.00276983 15276
GALAXY 13 (HORIZONS 1)  
1 27954U 03044A   21229.63059378  .00000036  00000-0  00000-0 0  9994
2 27954   0.0286 261.5896 0000281 311.7986 212.8272  1.00272579 28870
YAMAL 202               
1 28089U 03053A   21229.57058297 -.00000093  00000-0  00000-0 0  9990
2 28089   1.8764  91.2343 0007108  35.6481 208.1741  1.00271905 64985
UFO 11 (USA 174)        
1 28117U 03057A   21229.51231448 -.00000106  00000-0  00000+0 0  9995
2 28117   6.5736  37.8551 0004392  60.2649 126.9795  1.00270452 64721
USA 176 (DSP 22)        
1 28158U 04004A   21229.44313442 -.00000229  00000-0  00000-0 0  9997
2 28158   9.6989  36.9160 0001378 103.3168  72.5735  1.00267280 15239
ABS-4 (MOBISAT-1)       
1 28184U 04007A   21229.50969740  .00000028  00000-0  00000-0 0  9990
2 28184   1.5613  92.4919 0005075  57.0399  61.0188  1.00271121 34641
EUTELSAT 7A             
1 28187U 04008A   21229.62037160  .00000092  00000-0  00000-0 0  9990
2 28187   1.3522  90.6112 0004464  56.8999 262.7934  1.00271602 63656
AMC-11 (GE-11)          
1 28252U 04017A   21229.62712216  .00000057  00000-0  00000-0 0  9996
2 28252   0.0539 292.0149 0002816 210.7402 278.2239  1.00273220 63186
INTELSAT 10-02          
1 28358U 04022A   21229.40882649 -.00000023  00000-0  00000-0 0  9997
2 28358   0.0495 272.9272 0001243 236.5235 322.7012  1.00271300 62855
ANIK F2                 
1 28378U 04027A   21229.54203219 -.00000061  00000-0  00000-0 0  9991
2 28378   0.0309  86.1277 0001612  88.4713 235.5828  1.00271262 23564
AMC-15                  
1 28446U 04041A   21229.63544422 -.00000101  00000-0  00000-0 0  9992
2 28446   0.0471 292.6762 0003139 221.8197 295.4352  1.00271823 61638
AMC-16                  
1 28472U 04048A   21229.59998181 -.00000052  00000-0  00000-0 0  9993
2 28472   0.0343 107.6488 0004499  48.1470 223.6205  0.99106156 60990
NSS-10 (AMC-12)         
1 28526U 05003A   21229.41827218 -.00000263  00000-0  00000-0 0  9992
2 28526   2.0349  90.5170 0003168  44.8577 303.7571  1.00272446 35457
XTAR-EUR                
1 28542U 05005A   21229.01504487  .00000141  00000-0  00000-0 0  9992
2 28542   0.0161 105.8352 0002886  41.6657 212.5108  1.00271493 60493
XM-3 (RHYTHM)           
1 28626U 05008A   21228.90633769 -.00000213  00000-0  00000-0 0  9992
2 28626   0.0184 121.6094 0002662 354.3029  90.7458  1.00257443 24920
INMARSAT 4-F1           
1 28628U 05009A   21229.43209116 -.00000273  00000-0  00000-0 0  9995
2 28628   3.4023  31.6932 0002999 115.1628 118.2243  1.00272207 59979
DIRECTV 8               
1 28659U 05019A   21229.63740043 -.00000011  00000-0  00000-0 0  9991
2 28659   0.0125 164.9950 0003279 345.9315 285.7078  1.00272339 59373
GALAXY 28 (G-28)        
1 28702U 05022A   21229.55148340 -.00000197  00000-0  00000-0 0  9992
2 28702   0.0147  84.6001 0000516  31.2441 319.8145  1.00269765 34283
EXPRESS-AM3             
1 28707U 05023A   21229.57381580  .00000120  00000-0  00000-0 0  9990
2 28707   2.8236  86.5968 0000946  86.5656  22.5515  1.00273517 59149
THAICOM 4               
1 28786U 05028A   21229.52129977 -.00000375  00000-0  00000-0 0  9990
2 28786   0.0162 105.6764 0002689  37.3331 130.2524  1.00271389 34562
GALAXY 14 (G-14)        
1 28790U 05030A   21229.50402708  .00000143  00000-0  00000-0 0  9994
2 28790   0.4996  95.0587 0002230  81.6690   3.7263  1.00274240 58618
ANIK F1R                
1 28868U 05036A   21229.54430012 -.00000086  00000-0  00000-0 0  9996
2 28868   0.0202 358.0249 0002362 100.5485 316.1937  1.00270751 28750
GALAXY 15 (G-15)        
1 28884U 05041A   21229.62606002  .00000067  00000-0  00000-0 0  9991
2 28884   0.0229 247.9063 0001783 271.4010 259.2825  1.00272502 57914
SYRACUSE 3A             
1 28885U 05041B   21229.50690587  .00000116  00000-0  00000-0 0  9995
2 28885   0.3629  97.4000 0002872  46.8334  51.3354  1.00274330 58059
INMARSAT 4-F2           
1 28899U 05044A   21229.51022081 -.00000002  00000-0  00000-0 0  9997
2 28899   3.2784  34.3254 0003027 114.8098  64.5408  1.00271385 57822
TELKOM 2                
1 28902U 05046A   21229.61132666  .00000027  00000-0  00000-0 0  9992
2 28902   0.2154  97.3094 0001604 119.2168 180.7542  0.99147429 57730
SPACEWAY 2              
1 28903U 05046B   21229.62037128  .00000091  00000-0  00000-0 0  9992
2 28903   1.1882  91.2681 0000361  26.8795 292.4925  1.00270461 33648
METEOSAT-9 (MSG-2)      
1 28912U 05049B   21229.35458997  .00000005  00000-0  00000-0 0  9991
2 28912   5.3396  68.1083 0001086  51.0246 338.0006  1.00277227 57346
EUTELSAT 174A           
1 28924U 05052A   21229.58211451 -.00000002  00000-0  00000-0 0  9993
2 28924   0.0485 335.0756 0006507 171.7935 202.8513  1.00271898 34637
ECHOSTAR 10             
1 28935U 06003A   21229.54203236 -.00000067  00000-0  00000-0 0  9991
2 28935   0.0579 287.7278 0001940 182.5600 300.7762  1.00271023 56773
SPAINSAT                
1 28945U 06007A   21229.17839542 -.00000227  00000-0  00000-0 0  9998
2 28945   0.0424 245.8278 0004818 289.7966 184.3732  1.00269960 56512
EUTELSAT HOTBIRD 13E    
1 28946U 06007B   21229.35650917  .00000076  00000-0  00000-0 0  9997
2 28946   0.0471 149.6772 0006359  12.4642 305.1353  1.00271478 56619
JCSAT-5A                
1 29045U 06010A   21229.52382962 -.00000340  00000-0  00000-0 0  9998
2 29045   0.0091 137.8049 0002063   7.9740 140.9718  1.00271647 56067
ASTRA 1KR               
1 29055U 06012A   21229.21420522  .00000109  00000-0  00000-0 0  9994
2 29055   0.0845 274.4404 0003545 266.6422 241.0023  1.00270449 28021
EWS-G1 (GOES 13)        
1 29155U 06018A   21229.58868921  .00000025  00000-0  00000-0 0  9997
2 29155   0.0578 153.0214 0006080  39.6481  46.8058  1.00273655 25686
EUTELSAT 113 WEST A     
1 29162U 06020A   21229.53975635 -.00000049  00000-0  00000+0 0  9990
2 29162   0.0152 254.1603 0003030 260.3588 252.9197  1.00272346 55773
